OBJECT_NAME,OBJECT_ID,EPOCH,MEAN_MOTION,ECCENTRICITY,INCLINATION,RA_OF_ASC_NODE,ARG_OF_PERICENTER,MEAN_ANOMALY,EPHEMERIS_TYPE,CLASSIFICATION_TYPE,NORAD_CAT_ID,ELEMENT_SET_NO,REV_AT_EPOCH,BSTAR,MEAN_MOTION_DOT,MEAN_MOTION_DDOT
SKYSAT-C1,2016-040C,2026-07-21T01:55:10.782624,15.36809315,.00007235,96.9554,231.9715,194.3527,165.7699,0,U,41601,999,56307,.18200614E-3,.6472E-4,0
LAPAN-A3,2016-040E,2026-07-21T06:13:37.238592,15.33302322,.0008353,97.1509,197.2934,249.4397,110.5950,0,U,41603,999,56003,.69755077E-4,.2171E-4,0
GAOFEN-3,2016-049A,2026-07-21T06:53:42.307872,14.42219097,.00017819,98.4025,209.5596,83.6305,276.5087,0,U,41727,999,52356,.2218928E-4,.3E-6,0
SKYSAT-C4,2016-058B,2026-07-21T07:25:47.800992,15.49568378,.00035266,96.9175,222.6746,109.4155,250.7479,0,U,41771,999,55075,.24183829E-3,.13269E-3,0
SKYSAT-C5,2016-058C,2026-07-21T01:59:41.098848,15.33768983,.00031855,97.0452,241.1966,146.5014,213.6431,0,U,41772,999,54894,.16459747E-3,.5301E-4,0
SKYSAT-C2,2016-058D,2026-07-21T01:25:07.350240,15.42765503,.00007269,97.0165,222.8935,306.0371,54.0810,0,U,41773,999,55027,.20539646E-3,.89E-4,0
SKYSAT-C3,2016-058E,2026-07-21T00:43:44.509728,15.53879483,.00027793,96.9000,231.6037,125.8983,234.2530,0,U,41774,999,55136,.26757403E-3,.17145E-3,0
ALSAT-1B,2016-059C,2026-07-21T06:56:57.747264,14.72296887,.00106738,97.7762,209.5825,112.7693,247.4644,0,U,41785,999,52559,.27723604E-4,.128E-5,0
PATHFINDER 1,2016-059E,2026-07-21T05:23:18.943584,14.67697951,.00299638,97.8180,199.9669,97.4268,263.0344,0,U,41787,999,52470,.82839157E-4,.428E-5,0
SCATSAT 1,2016-059H,2026-07-21T03:54:37.354176,14.79597322,.00555974,98.1172,266.2770,137.6688,222.8834,0,U,41790,999,10661,.12581297E-3,.911E-5,0
GOKTURK 1A,2016-073A,2026-07-21T05:48:50.777568,14.62796210,.00014392,98.1199,96.3754,80.4692,279.6672,0,U,41875,999,51380,.73639262E-4,.329E-5,0
RESOURCESAT-2A,2016-074A,2026-07-21T06:38:22.910784,14.21608791,.00020108,98.7510,275.5002,14.3542,345.7692,0,U,41877,999,49914,-.53629706E-4,-.162E-5,0
CARTOSAT-2D,2017-008A,2026-07-21T06:37:00.384960,15.19311987,.00065442,97.4084,260.9413,122.5381,237.6487,0,U,41948,999,52275,.12616982E-3,.2597E-4,0
SENTINEL-2B,2017-013A,2026-07-21T08:00:04.915008,14.30815801,.00012362,98.5675,276.6239,95.1345,264.9979,0,U,42063,999,48952,-.21321903E-4,-.99E-6,0
CARTOSAT-2E,2017-036C,2026-07-21T07:02:45.682656,15.19282999,.00040007,97.4253,261.5301,168.0266,192.1064,0,U,42767,999,50332,.15218515E-3,.3143E-4,0
FORMOSAT-5,2017-049A,2026-07-21T06:12:18.757152,14.50908902,.0010913,98.2241,276.8095,344.8504,15.2363,0,U,42920,999,47161,.226737E-4,.46E-6,0
SENTINEL-5P,2017-064A,2026-07-21T05:55:02.339040,14.19523981,.00011925,98.7929,144.1371,92.3814,267.7498,0,U,42969,999,45439,.33682948E-4,.27E-6,0
SKYSAT-C11,2017-068A,2026-07-21T03:29:09.163680,15.59545665,.00014875,97.4387,352.5062,151.5887,208.5451,0,U,42987,999,48853,.29602854E-3,.23423E-3,0
SKYSAT-C10,2017-068B,2026-07-21T06:10:28.353504,15.35193975,.00015474,97.4542,339.4579,110.1118,250.0292,0,U,42988,999,48758,.24107289E-3,.8155E-4,0
SKYSAT-C9,2017-068C,2026-07-21T02:44:00.700800,15.42303983,.00081292,97.4465,340.5776,25.0277,335.1363,0,U,42989,999,48798,.21898155E-3,.9351E-4,0
SKYSAT-C8,2017-068D,2026-07-20T21:58:53.507712,15.37560720,.00013088,97.4560,339.0428,107.1679,252.9709,0,U,42990,999,48749,.20151303E-3,.7342E-4,0
SKYSAT-C7,2017-068E,2026-07-21T04:06:05.059296,15.37514061,.00051456,97.4571,340.2937,0.3290,359.7957,0,U,42991,999,48759,.20775377E-3,.7563E-4,0
SKYSAT-C6,2017-068F,2026-07-21T06:12:34.220160,15.34234710,.00049139,97.4610,340.2089,73.7370,286.4413,0,U,42992,999,48754,.2082094E-3,.6821E-4,0
CARTOSAT-2F,2018-004A,2026-07-21T07:50:04.481664,15.19198279,.00028024,97.4761,261.6237,125.7910,234.3586,0,U,43111,999,47251,.78604572E-4,.1586E-4,0
GAOFEN-1 02,2018-031A,2026-07-21T07:39:56.666304,14.76474503,.00015543,98.0504,264.7478,246.0659,114.0388,0,U,43259,999,44773,-.22078675E-4,-.205E-5,0
GAOFEN-1 03,2018-031B,2026-07-21T07:08:27.550176,14.76467873,.00019201,98.0499,264.5805,356.5805,3.5391,0,U,43260,999,44772,.71055153E-4,.443E-5,0
GAOFEN-1 04,2018-031D,2026-07-21T06:33:33.528672,14.76442849,.0000846,98.0505,264.7514,56.2737,303.8553,0,U,43262,999,44771,.74037484E-4,.463E-5,0
SENTINEL-3B,2018-039A,2026-07-21T03:10:52.929120,14.26737513,.00012761,98.6231,269.1747,118.4433,241.6877,0,U,43437,999,42896,.40727506E-4,.55E-6,0
GAOFEN-5 01,2018-043A,2026-07-21T04:14:54.333600,14.60625994,.00017409,98.4596,174.4822,18.9879,341.1386,0,U,43461,999,43665,.53649674E-4,.212E-5,0
GAOFEN-6,2018-048A,2026-07-21T07:06:24.408576,14.76388118,.00119777,98.0948,265.0124,64.7704,295.4746,0,U,43484,999,43842,.51503264E-4,.306E-5,0
