SKYSAT-C1               
1 41601U 16040C   26202.07998591  .00006472  00000+0  18201-3 0  9996
2 41601  96.9554 231.9715 0000723 194.3527 165.7699 15.36809315563078
LAPAN-A3                
1 41603U 16040E   26202.25945878  .00002171  00000+0  69755-4 0  9991
2 41603  97.1509 197.2934 0008353 249.4397 110.5950 15.33302322560038
GAOFEN-3                
1 41727U 16049A   26202.28729523  .00000030  00000+0  22189-4 0  9999
2 41727  98.4025 209.5596 0001781  83.6305 276.5087 14.42219097523564
SKYSAT-C4               
1 41771U 16058B   26202.30958103  .00013269  00000+0  24184-3 0  9993
2 41771  96.9175 222.6746 0003526 109.4155 250.7479 15.49568378550751
SKYSAT-C5               
1 41772U 16058C   26202.08311457  .00005301  00000+0  16460-3 0  9990
2 41772  97.0452 241.1966 0003185 146.5014 213.6431 15.33768983548940
SKYSAT-C2               
1 41773U 16058D   26202.05911285  .00008900  00000+0  20540-3 0  9995
2 41773  97.0165 222.8935 0000726 306.0371  54.0810 15.42765503550273
SKYSAT-C3               
1 41774U 16058E   26202.03037627  .00017145  00000+0  26757-3 0  9990
2 41774  96.9000 231.6037 0002779 125.8983 234.2530 15.53879483551364
ALSAT-1B                
1 41785U 16059C   26202.28955726  .00000128  00000+0  27724-4 0  9998
2 41785  97.7762 209.5825 0010673 112.7693 247.4644 14.72296887525593
PATHFINDER 1            
1 41787U 16059E   26202.22452481  .00000428  00000+0  82839-4 0  9995
2 41787  97.8180 199.9669 0029963  97.4268 263.0344 14.67697951524701
SCATSAT 1               
1 41790U 16059H   26202.16293234  .00000911  00000+0  12581-3 0  9994
2 41790  98.1172 266.2770 0055597 137.6688 222.8834 14.79597322106613
GOKTURK 1A              
1 41875U 16073A   26202.24225437  .00000329  00000+0  73639-4 0  9998
2 41875  98.1199  96.3754 0001439  80.4692 279.6672 14.62796210513808
RESOURCESAT-2A          
1 41877U 16074A   26202.27665406 -.00000162  00000+0 -53630-4 0  9994
2 41877  98.7510 275.5002 0002010  14.3542 345.7692 14.21608791499144
CARTOSAT-2D             
1 41948U 17008A   26202.27569890  .00002597  00000+0  12617-3 0  9992
2 41948  97.4084 260.9413 0006544 122.5381 237.6487 15.19311987522759
SENTINEL-2B             
1 42063U 17013A   26202.33339022 -.00000099  00000+0 -21322-4 0  9997
2 42063  98.5675 276.6239 0001236  95.1345 264.9979 14.30815801489526
CARTOSAT-2E             
1 42767U 17036C   26202.29358429  .00003143  00000+0  15219-3 0  9998
2 42767  97.4253 261.5301 0004000 168.0266 192.1064 15.19282999503320
FORMOSAT-5              
1 42920U 17049A   26202.25855043  .00000046  00000+0  22674-4 0  9996
2 42920  98.2241 276.8095 0010913 344.8504  15.2363 14.50908902471611
SENTINEL-5P             
1 42969U 17064A   26202.24655485  .00000027  00000+0  33683-4 0  9994
2 42969  98.7929 144.1371 0001192  92.3814 267.7498 14.19523981454398
SKYSAT-C11              
1 42987U 17068A   26202.14524495  .00023423  00000+0  29603-3 0  9994
2 42987  97.4387 352.5062 0001487 151.5887 208.5451 15.59545665488532
SKYSAT-C10              
1 42988U 17068B   26202.25727261  .00008155  00000+0  24107-3 0  9992
2 42988  97.4542 339.4579 0001547 110.1118 250.0292 15.35193975487584
SKYSAT-C9               
1 42989U 17068C   26202.11389700  .00009351  00000+0  21898-3 0  9993
2 42989  97.4465 340.5776 0008129  25.0277 335.1363 15.42303983487982
SKYSAT-C8               
1 42990U 17068D   26201.91589708  .00007342  00000+0  20151-3 0  9991
2 42990  97.4560 339.0428 0001308 107.1679 252.9709 15.37560720487491
SKYSAT-C7               
1 42991U 17068E   26202.17089189  .00007563  00000+0  20775-3 0  9996
2 42991  97.4571 340.2937 0005145   0.3290 359.7957 15.37514061487598
SKYSAT-C6               
1 42992U 17068F   26202.25872940  .00006821  00000+0  20821-3 0  9999
2 42992  97.4610 340.2089 0004913  73.7370 286.4413 15.34234710487541
CARTOSAT-2F             
1 43111U 18004A   26202.32644076  .00001586  00000+0  78605-4 0  9996
2 43111  97.4761 261.6237 0002802 125.7910 234.3586 15.19198279472512
GAOFEN-1 02             
1 43259U 18031A   26202.31940586 -.00000205  00000+0 -22079-4 0  9996
2 43259  98.0504 264.7478 0001554 246.0659 114.0388 14.76474503447737
GAOFEN-1 03             
1 43260U 18031B   26202.29754109  .00000443  00000+0  71055-4 0  9999
2 43260  98.0499 264.5805 0001920 356.5805   3.5391 14.76467873447728
GAOFEN-1 04             
1 43262U 18031D   26202.27330473  .00000463  00000+0  74037-4 0  9998
2 43262  98.0505 264.7514 0000846  56.2737 303.8553 14.76442849447712
SENTINEL-3B             
1 43437U 18039A   26202.13255705  .00000055  00000+0  40728-4 0  9996
2 43437  98.6231 269.1747 0001276 118.4433 241.6877 14.26737513428961
GAOFEN-5 01             
1 43461U 18043A   26202.17701775  .00000212  00000+0  53650-4 0  9998
2 43461  98.4596 174.4822 0001740  18.9879 341.1386 14.60625994436659
GAOFEN-6                
1 43484U 18048A   26202.29611584  .00000306  00000+0  51503-4 0  9998
2 43484  98.0948 265.0124 0011977  64.7704 295.4746 14.76388118438421
